43249,IRIDIUM 144,2018,100.4,860.0,+,86.4,Active,1,LEO,USA,USA,Commercial/Government,Communications,Falcon,1 43249U 18030A   24306.89587181  .00000135  00000+0  41287-4 0  9990,2 43249  86.4025 177.9747 0002159  77.9272 282.2166 14.34213924345240,14.34213924,0.0002159,LEO
43250,IRIDIUM 149,2018,100.4,860.0,+,86.4,Active,1,LEO,USA,USA,Commercial/Government,Communications,Falcon,1 43250U 18030B   24307.39059373  .00001128  00000+0  39573-3 0  9992,2 43250  86.4023 177.7425 0002066  76.2999 283.8426 14.34214996345332,14.34214996,0.0002066,LEO
43251,IRIDIUM 157,2018,100.4,860.0,+,86.4,Active,1,LEO,USA,USA,Commercial/Government,Communications,Falcon,1 43251U 18030C   24307.06077737  .00000968  00000+0  33839-3 0  9991,2 43251  86.4026 177.9198 0001805  81.8105 278.3296 14.34218718345268,14.34218718,0.0001805,LEO
43252,IRIDIUM 140,2018,100.4,860.0,+,86.4,Active,1,LEO,USA,USA,Commercial/Government,Communications,Falcon,1 43252U 18030D   24306.94026657  .00001233  00000+0  43316-3 0  9990,2 43252  86.4023 177.9841 0002185  84.5215 275.6230 14.34223044345306,14.34223044,0.0002185,LEO
43253,IRIDIUM 145,2018,100.4,860.0,+,86.4,Active,1,LEO,USA,USA,Commercial/Government,Communications,Falcon,1 43253U 18030E   24307.55549017  .00000523  00000+0  17965-3 0  9991,2 43253  86.4026 177.6995 0002434  73.7707 286.3756 14.34215209345328,14.34215209,0.0002434,LEO
43254,IRIDIUM 146,2018,100.4,860.0,+,86.4,Active,1,LEO,USA,USA,Commercial/Government,Communications,Falcon,1 43254U 18030F   24307.39693678  .00000929  00000+0  32481-3 0  9997,2 43254  86.4024 177.7812 0002131  77.5054 282.6380 14.34215148345310,14.34215148,0.0002131,LEO
43255,IRIDIUM 148,2018,100.4,860.0,+,86.4,Active,1,LEO,USA,USA,Commercial/Government,Communications,Falcon,1 43255U 18030G   24306.94660944  .00000341  00000+0  11462-3 0  9992,2 43255  86.4019 178.0031 0002027  78.5578 281.5845 14.34220942345286,14.34220942,0.0002027,LEO
43256,IRIDIUM 142,2018,100.4,860.0,+,86.4,Active,1,LEO,USA,USA,Commercial/Government,Communications,Falcon,1 43256U 18030H   24306.91489926  .00001276  00000+0  44832-3 0  9994,2 43256  86.4019 177.9270 0002138  70.7227 289.4200 14.34219971345246,14.34219971,0.0002138,LEO
