<?xml version="1.0" encoding="UTF-8"?>
<ndm xmlns:xsi="http://www.w3.org/2001/XMLSchema-instance" xsi:noNamespaceSchemaLocation="https://sanaregistry.org/r/ndmxml_unqualified/ndmxml-2.0.0-master-2.0.xsd">
<omm id="CCSDS_OMM_VERS" version="2.0">
<header><CREATION_DATE/><ORIGINATOR/></header><body><segment><metadata><OBJECT_NAME>IRIDIUM 144</OBJECT_NAME><OBJECT_ID>2018-030A</OBJECT_ID><CENTER_NAME>EARTH</CENTER_NAME><REF_FRAME>TEME</REF_FRAME><TIME_SYSTEM>UTC</TIME_SYSTEM><MEAN_ELEMENT_THEORY>SGP4</MEAN_ELEMENT_THEORY></metadata><data><meanElements><EPOCH>2024-11-01T21:30:03.324384</EPOCH><MEAN_MOTION>14.34213924</MEAN_MOTION><ECCENTRICITY>.0002159</ECCENTRICITY><INCLINATION>86.4025</INCLINATION><RA_OF_ASC_NODE>177.9747</RA_OF_ASC_NODE><ARG_OF_PERICENTER>77.9272</ARG_OF_PERICENTER><MEAN_ANOMALY>282.2166</MEAN_ANOMALY></meanElements><tleParameters><EPHEMERIS_TYPE>0</EPHEMERIS_TYPE><CLASSIFICATION_TYPE>U</CLASSIFICATION_TYPE><NORAD_CAT_ID>43249</NORAD_CAT_ID><ELEMENT_SET_NO>999</ELEMENT_SET_NO><REV_AT_EPOCH>34524</REV_AT_EPOCH><BSTAR>.41287E-4</BSTAR><MEAN_MOTION_DOT>.135E-5</MEAN_MOTION_DOT><MEAN_MOTION_DDOT>0</MEAN_MOTION_DDOT></tleParameters></data></segment></body></omm>
<omm id="CCSDS_OMM_VERS" version="2.0">
<header><CREATION_DATE/><ORIGINATOR/></header><body><segment><metadata><OBJECT_NAME>IRIDIUM 149</OBJECT_NAME><OBJECT_ID>2018-030B</OBJECT_ID><CENTER_NAME>EARTH</CENTER_NAME><REF_FRAME>TEME</REF_FRAME><TIME_SYSTEM>UTC</TIME_SYSTEM><MEAN_ELEMENT_THEORY>SGP4</MEAN_ELEMENT_THEORY></metadata><data><meanElements><EPOCH>2024-11-02T09:22:27.298272</EPOCH><MEAN_MOTION>14.34214996</MEAN_MOTION><ECCENTRICITY>.0002066</ECCENTRICITY><INCLINATION>86.4023</INCLINATION><RA_OF_ASC_NODE>177.7425</RA_OF_ASC_NODE><ARG_OF_PERICENTER>76.2999</ARG_OF_PERICENTER><MEAN_ANOMALY>283.8426</MEAN_ANOMALY></meanElements><tleParameters><EPHEMERIS_TYPE>0</EPHEMERIS_TYPE><CLASSIFICATION_TYPE>U</CLASSIFICATION_TYPE><NORAD_CAT_ID>43250</NORAD_CAT_ID><ELEMENT_SET_NO>999</ELEMENT_SET_NO><REV_AT_EPOCH>34533</REV_AT_EPOCH><BSTAR>.39573E-3</BSTAR><MEAN_MOTION_DOT>.1128E-4</MEAN_MOTION_DOT><MEAN_MOTION_DDOT>0</MEAN_MOTION_DDOT></tleParameters></data></segment></body></omm>
<omm id="CCSDS_OMM_VERS" version="2.0">
<header><CREATION_DATE/><ORIGINATOR/></header><body><segment><metadata><OBJECT_NAME>IRIDIUM 157</OBJECT_NAME><OBJECT_ID>2018-030C</OBJECT_ID><CENTER_NAME>EARTH</CENTER_NAME><REF_FRAME>TEME</REF_FRAME><TIME_SYSTEM>UTC</TIME_SYSTEM><MEAN_ELEMENT_THEORY>SGP4</MEAN_ELEMENT_THEORY></metadata><data><meanElements><EPOCH>2024-11-02T01:27:31.164768</EPOCH><MEAN_MOTION>14.34218718</MEAN_MOTION><ECCENTRICITY>.0001805</ECCENTRICITY><INCLINATION>86.4026</INCLINATION><RA_OF_ASC_NODE>177.9198</RA_OF_ASC_NODE><ARG_OF_PERICENTER>81.8105</ARG_OF_PERICENTER><MEAN_ANOMALY>278.3296</MEAN_ANOMALY></meanElements><tleParameters><EPHEMERIS_TYPE>0</EPHEMERIS_TYPE><CLASSIFICATION_TYPE>U</CLASSIFICATION_TYPE><NORAD_CAT_ID>43251</NORAD_CAT_ID><ELEMENT_SET_NO>999</ELEMENT_SET_NO><REV_AT_EPOCH>34526</REV_AT_EPOCH><BSTAR>.33839E-3</BSTAR><MEAN_MOTION_DOT>.968E-5</MEAN_MOTION_DOT><MEAN_MOTION_DDOT>0</MEAN_MOTION_DDOT></tleParameters></data></segment></body></omm>
<omm id="CCSDS_OMM_VERS" version="2.0">
<header><CREATION_DATE/><ORIGINATOR/></header><body><segment><metadata><OBJECT_NAME>IRIDIUM 140</OBJECT_NAME><OBJECT_ID>2018-030D</OBJECT_ID><CENTER_NAME>EARTH</CENTER_NAME><REF_FRAME>TEME</REF_FRAME><TIME_SYSTEM>UTC</TIME_SYSTEM><MEAN_ELEMENT_THEORY>SGP4</MEAN_ELEMENT_THEORY></metadata><data><meanElements><EPOCH>2024-11-01T22:33:59.031648</EPOCH><MEAN_MOTION>14.34223044</MEAN_MOTION><ECCENTRICITY>.0002185</ECCENTRICITY><INCLINATION>86.4023</INCLINATION><RA_OF_ASC_NODE>177.9841</RA_OF_ASC_NODE><ARG_OF_PERICENTER>84.5215</ARG_OF_PERICENTER><MEAN_ANOMALY>275.6230</MEAN_ANOMALY></meanElements><tleParameters><EPHEMERIS_TYPE>0</EPHEMERIS_TYPE><CLASSIFICATION_TYPE>U</CLASSIFICATION_TYPE><NORAD_CAT_ID>43252</NORAD_CAT_ID><ELEMENT_SET_NO>999</ELEMENT_SET_NO><REV_AT_EPOCH>34530</REV_AT_EPOCH><BSTAR>.43316E-3</BSTAR><MEAN_MOTION_DOT>.1233E-4</MEAN_MOTION_DOT><MEAN_MOTION_DDOT>0</MEAN_MOTION_DDOT></tleParameters></data></segment></body></omm>
<omm id="CCSDS_OMM_VERS" version="2.0">
<header><CREATION_DATE/><ORIGINATOR/></header><body><segment><metadata><OBJECT_NAME>IRIDIUM 145</OBJECT_NAME><OBJECT_ID>2018-030E</OBJECT_ID><CENTER_NAME>EARTH</CENTER_NAME><REF_FRAME>TEME</REF_FRAME><TIME_SYSTEM>UTC</TIME_SYSTEM><MEAN_ELEMENT_THEORY>SGP4</MEAN_ELEMENT_THEORY></metadata><data><meanElements><EPOCH>2024-11-02T13:19:54.350688</EPOCH><MEAN_MOTION>14.34215209</MEAN_MOTION><ECCENTRICITY>.0002434</ECCENTRICITY><INCLINATION>86.4026</INCLINATION><RA_OF_ASC_NODE>177.6995</RA_OF_ASC_NODE><ARG_OF_PERICENTER>73.7707</ARG_OF_PERICENTER><MEAN_ANOMALY>286.3756</MEAN_ANOMALY></meanElements><tleParameters><EPHEMERIS_TYPE>0</EPHEMERIS_TYPE><CLASSIFICATION_TYPE>U</CLASSIFICATION_TYPE><NORAD_CAT_ID>43253</NORAD_CAT_ID><ELEMENT_SET_NO>999</ELEMENT_SET_NO><REV_AT_EPOCH>34532</REV_AT_EPOCH><BSTAR>.17965E-3</BSTAR><MEAN_MOTION_DOT>.523E-5</MEAN_MOTION_DOT><MEAN_MOTION_DDOT>0</MEAN_MOTION_DDOT></tleParameters></data></segment></body></omm>
<omm id="CCSDS_OMM_VERS" version="2.0">
<header><CREATION_DATE/><ORIGINATOR/></header><body><segment><metadata><OBJECT_NAME>IRIDIUM 146</OBJECT_NAME><OBJECT_ID>2018-030F</OBJECT_ID><CENTER_NAME>EARTH</CENTER_NAME><REF_FRAME>TEME</REF_FRAME><TIME_SYSTEM>UTC</TIME_SYSTEM><MEAN_ELEMENT_THEORY>SGP4</MEAN_ELEMENT_THEORY></metadata><data><meanElements><EPOCH>2024-11-02T09:31:35.337792</EPOCH><MEAN_MOTION>14.34215148</MEAN_MOTION><ECCENTRICITY>.0002131</ECCENTRICITY><INCLINATION>86.4024</INCLINATION><RA_OF_ASC_NODE>177.7812</RA_OF_ASC_NODE><ARG_OF_PERICENTER>77.5054</ARG_OF_PERICENTER><MEAN_ANOMALY>282.6380</MEAN_ANOMALY></meanElements><tleParameters><EPHEMERIS_TYPE>0</EPHEMERIS_TYPE><CLASSIFICATION_TYPE>U</CLASSIFICATION_TYPE><NORAD_CAT_ID>43254</NORAD_CAT_ID><ELEMENT_SET_NO>999</ELEMENT_SET_NO><REV_AT_EPOCH>34531</REV_AT_EPOCH><BSTAR>.32481E-3</BSTAR><MEAN_MOTION_DOT>.929E-5</MEAN_MOTION_DOT><MEAN_MOTION_DDOT>0</MEAN_MOTION_DDOT></tleParameters></data></segment></body></omm>
<omm id="CCSDS_OMM_VERS" version="2.0">
<header><CREATION_DATE/><ORIGINATOR/></header><body><segment><metadata><OBJECT_NAME>IRIDIUM 148</OBJECT_NAME><OBJECT_ID>2018-030G</OBJECT_ID><CENTER_NAME>EARTH</CENTER_NAME><REF_FRAME>TEME</REF_FRAME><TIME_SYSTEM>UTC</TIME_SYSTEM><MEAN_ELEMENT_THEORY>SGP4</MEAN_ELEMENT_THEORY></metadata><data><meanElements><EPOCH>2024-11-01T22:43:07.055616</EPOCH><MEAN_MOTION>14.34220942</MEAN_MOTION><ECCENTRICITY>.0002027</ECCENTRICITY><INCLINATION>86.4019</INCLINATION><RA_OF_ASC_NODE>178.0031</RA_OF_ASC_NODE><ARG_OF_PERICENTER>78.5578</ARG_OF_PERICENTER><MEAN_ANOMALY>281.5845</MEAN_ANOMALY></meanElements><tleParameters><EPHEMERIS_TYPE>0</EPHEMERIS_TYPE><CLASSIFICATION_TYPE>U</CLASSIFICATION_TYPE><NORAD_CAT_ID>43255</NORAD_CAT_ID><ELEMENT_SET_NO>999</ELEMENT_SET_NO><REV_AT_EPOCH>34528</REV_AT_EPOCH><BSTAR>.11462E-3</BSTAR><MEAN_MOTION_DOT>.341E-5</MEAN_MOTION_DOT><MEAN_MOTION_DDOT>0</MEAN_MOTION_DDOT></tleParameters></data></segment></body></omm>
<omm id="CCSDS_OMM_VERS" version="2.0">
<header><CREATION_DATE/><ORIGINATOR/></header><body><segment><metadata><OBJECT_NAME>IRIDIUM 142</OBJECT_NAME><OBJECT_ID>2018-030H</OBJECT_ID><CENTER_NAME>EARTH</CENTER_NAME><REF_FRAME>TEME</REF_FRAME><TIME_SYSTEM>UTC</TIME_SYSTEM><MEAN_ELEMENT_THEORY>SGP4</MEAN_ELEMENT_THEORY></metadata><data><meanElements><EPOCH>2024-11-01T21:57:27.296064</EPOCH><MEAN_MOTION>14.34219971</MEAN_MOTION><ECCENTRICITY>.0002138</ECCENTRICITY><INCLINATION>86.4019</INCLINATION><RA_OF_ASC_NODE>177.9270</RA_OF_ASC_NODE><ARG_OF_PERICENTER>70.7227</ARG_OF_PERICENTER><MEAN_ANOMALY>289.4200</MEAN_ANOMALY></meanElements><tleParameters><EPHEMERIS_TYPE>0</EPHEMERIS_TYPE><CLASSIFICATION_TYPE>U</CLASSIFICATION_TYPE><NORAD_CAT_ID>43256</NORAD_CAT_ID><ELEMENT_SET_NO>999</ELEMENT_SET_NO><REV_AT_EPOCH>34524</REV_AT_EPOCH><BSTAR>.44832E-3</BSTAR><MEAN_MOTION_DOT>.1276E-4</MEAN_MOTION_DOT><MEAN_MOTION_DDOT>0</MEAN_MOTION_DDOT></tleParameters></data></segment></body></omm>

</ndm>
